ONEWEB-0620             
1 55161U 23004X   24356.43929718  .00000575  00000+0  15859-2 0  9996
2 55161  87.8900 129.2540 0001860 113.1868 246.9456 13.11416832 94692
ONEWEB-0621             
1 55162U 23004Y   24356.39012262 -.00000337  00000+0 -98689-3 0  9990
2 55162  87.8896 129.2264 0001705  94.1956 265.9367 13.11416550 94660
ONEWEB-0622             
1 55163U 23004Z   24356.39520657 -.00000191  00000+0 -57397-3 0  9992
2 55163  87.8896 129.2449 0002383 107.8144 252.3244 13.11415782 94659
ONEWEB-0623             
1 55164U 23004AA  24356.37829822 -.00000051  00000+0 -16370-3 0  9998
2 55164  87.9099 114.0322 0002454  98.0690 262.0720 13.17649375 96106
ONEWEB-0624             
1 55165U 23004AB  24356.30993866 -.00000134  00000+0 -40677-3 0  9991
2 55165  87.8889  98.7585 0001840 103.5858 256.5475 13.12443104 96841
ONEWEB-0625             
1 55166U 23004AC  24356.36816808 -.00000070  00000+0 -21275-3 0  9990
2 55166  87.9102 114.0327 0001461  98.7964 261.3333 13.17649128 96092
ONEWEB-0626             
1 55167U 23004AD  24356.35803922  .00000126  00000+0  29054-3 0  9996
2 55167  87.9101 114.0335 0001647 121.7003 238.4289 13.17648501 96097
ONEWEB-0627             
1 55168U 23004AE  24356.34622903  .00000108  00000+0  24550-3 0  9990
2 55168  87.9102 114.0382 0002259 103.6476 256.4907 13.17648631 96095
